NORAD_CAT_ID,OBJECT_NAME,OBJECT_TYPE,EPOCH,MEAN_MOTION,ECCENTRICITY,INCLINATION,RA_OF_ASC_NODE,ARG_OF_PERICENTER,MEAN_ANOMALY,BSTAR,MEAN_MOTION_DOT,MEAN_MOTION_DDOT,TLE_LINE0,TLE_LINE1,TLE_LINE2,SEMIMAJOR_AXIS,PERIOD,APOGEE,PERIGEE,DECAYED
52603.0,STARLINK-4016,PAYLOAD,2022-11-05 10:33:42,15.0882739,0.0002285,53.2201,357.0354,38.8139,321.3017,-6.9208e-05,-1.389e-05,0.0,0 STARLINK-4016,1 52603U 22052F   22309.44007630 -.00001389  00000-0 -69208-4 0  9999,2 52603  53.2201 357.0354 0002285  38.8139 321.3017 15.08827390 27444,6917.919,95.438,541.365,538.203,0.0
52603.0,STARLINK-4016,PAYLOAD,2022-11-05 13:44:29,15.08816648,0.0002464,53.22,356.4413,31.517,328.5969,-0.00019413,-3.375e-05,0.0,0 STARLINK-4016,1 52603U 22052F   22309.57256817 -.00003375  00000-0 -19413-3 0  9995,2 52603  53.2200 356.4413 0002464  31.5170 328.5969 15.08816648 27030,6917.9519999999975,95.439,541.521,538.112,0.0
52603.0,STARLINK-4016,PAYLOAD,2022-11-05 20:06:02,15.08824621,0.0002454,53.2203,355.2528,32.9481,327.1664,-0.00018792,-3.277e-05,0.0,0 STARLINK-4016,1 52603U 22052F   22309.83752513 -.00003277  00000-0 -18792-3 0  9998,2 52603  53.2203 355.2528 0002454  32.9481 327.1664 15.08824621 27505,6917.927,95.439,541.49,538.095,0.0
52603.0,STARLINK-4016,PAYLOAD,2022-11-05 23:16:48,15.0882827,0.0002763,53.2199,354.6573,24.5279,335.5844,-0.00018906,-3.295e-05,0.0,0 STARLINK-4016,1 52603U 22052F   22309.97000335 -.00003295  00000-0 -18906-3 0  9998,2 52603  53.2199 354.6573 0002763  24.5279 335.5844 15.08828270 27098,6917.916,95.438,541.693,537.87,0.0
52603.0,STARLINK-4016,PAYLOAD,2022-11-06 08:49:06,15.08834594,0.0002588,53.2201,352.8733,30.5127,329.6016,-7.060600000000001e-05,-1.412e-05,0.0,0 STARLINK-4016,1 52603U 22052F   22310.36743809 -.00001412  00000-0 -70606-4 0  9998,2 52603  53.2201 352.8733 0002588  30.5127 329.6016 15.08834594 27152,6917.897,95.438,541.552,537.972,0.0
52603.0,STARLINK-4016,PAYLOAD,2022-11-06 23:07:34,15.08841577,0.0002147,53.2202,350.1973,46.7472,313.3699,0.00016983,2.416e-05,0.0,0 STARLINK-4016,1 52603U 22052F   22310.96358932  .00002416  00000-0  16983-3 0  9993,2 52603  53.2202 350.1973 0002147  46.7472 313.3699 15.08841577 27249,6917.876,95.437,541.226,538.255,0.0
52603.0,STARLINK-4016,PAYLOAD,2022-11-07 10:15:16,15.08836714,0.000255,53.2196,348.1164,33.9647,326.1508,0.00023677,3.482e-05,0.0,0 STARLINK-4016,1 52603U 22052F   22311.42727987  .00003482  00000-0  23677-3 0  9997,2 52603  53.2196 348.1164 0002550  33.9647 326.1508 15.08836714 27316,6917.89,95.438,541.519,537.991,0.0
52603.0,STARLINK-4016,PAYLOAD,2022-11-08 02:09:09,15.08836682,0.0002045,53.219,345.1419,41.6586,318.4562,0.00033001,4.967e-05,0.0,0 STARLINK-4016,1 52603U 22052F   22312.08969238  .00004967  00000-0  33001-3 0  9998,2 52603  53.2190 345.1419 0002045  41.6586 318.4562 15.08836682 27416,6917.891,95.438,541.17,538.341,0.0
52603.0,STARLINK-4016,PAYLOAD,2022-11-08 08:30:41,15.08842556,0.0002176,53.2187,343.9534,35.0298,325.0837,0.00060614,9.373e-05,0.0,0 STARLINK-4016,1 52603U 22052F   22312.35465250  .00009373  00000-0  60614-3 0  9999,2 52603  53.2187 343.9534 0002176  35.0298 325.0837 15.08842556 27885,6917.873000000001,95.437,541.243,538.232,0.0
52603.0,STARLINK-4016,PAYLOAD,2022-11-08 21:13:46,15.08874766,0.000234,53.2182,341.5747,31.9029,328.2105,0.0013343,0.00021032,0.0,0 STARLINK-4016,1 52603U 22052F   22312.88456243  .00021032  00000-0  13343-2 0  9991,2 52603  53.2182 341.5747 0002340  31.9029 328.2105 15.08874766 27960,6917.774,95.435,541.258,538.02,0.0
52603.0,STARLINK-4016,PAYLOAD,2022-11-09 08:21:27,15.08862112,0.0002341,53.219,339.4921,40.286,319.8305,0.00052668,8.109e-05,0.0,0 STARLINK-4016,1 52603U 22052F   22313.34823451  .00008109  00000-0  52668-3 0  9996,2 52603  53.2190 339.4921 0002341  40.2860 319.8305 15.08862112 27607,6917.813,95.436,541.297,538.058,0.0
52603.0,STARLINK-4016,PAYLOAD,2022-11-09 19:29:08,15.08863655,0.0002538,53.2197,337.4129,31.7731,328.3414,0.00037671,5.716e-05,0.0,0 STARLINK-4016,1 52603U 22052F   22313.81190770  .00005716  00000-0  37671-3 0  9997,2 52603  53.2197 337.4129 0002538  31.7731 328.3414 15.08863655 28107,6917.808000000001,95.436,541.429,537.9169999999998,0.0
52603.0,STARLINK-4016,PAYLOAD,2022-11-10 01:50:42,15.08839488,0.0002425,53.2184,336.2225,24.4272,335.6835,-0.00019267,-3.354e-05,0.0,0 STARLINK-4016,1 52603U 22052F   22314.07688254 -.00003354  00000-0 -19267-3 0  9994,2 52603  53.2184 336.2225 0002425  24.4272 335.6835 15.08839488 27712,6917.882,95.438,541.425,538.069,0.0
52603.0,STARLINK-4016,PAYLOAD,2022-11-10 08:12:15,15.08817191,0.0002295,53.2187,335.0333,29.0166,331.0953,-0.00021202,-3.659e-05,0.0,0 STARLINK-4016,1 52603U 22052F   22314.34184749 -.00003659  00000-0 -21202-3 0  9994,2 52603  53.2187 335.0333 0002295  29.0166 331.0953 15.08817191 28180,6917.95,95.439,541.403,538.227,0.0
52603.0,STARLINK-4016,PAYLOAD,2022-11-11 01:41:30,15.08834986,0.0002289,53.219,331.7621,29.067,331.0449,0.00066086,0.00010244,0.0,0 STARLINK-4016,1 52603U 22052F   22315.07049492  .00010244  00000-0  66086-3 0  9995,2 52603  53.2190 331.7621 0002289  29.0670 331.0449 15.08834986 27865,6917.896,95.438,541.344,538.177,0.0
52603.0,STARLINK-4016,PAYLOAD,2022-11-11 08:03:03,15.08842421,0.0002326,53.2191,330.5729,28.8847,331.2273,0.00052968,8.152e-05,0.0,0 STARLINK-4016,1 52603U 22052F   22315.33545303  .00008152  00000-0  52968-3 0  9995,2 52603  53.2191 330.5729 0002326  28.8847 331.2273 15.08842421 28330,6917.873000000001,95.437,541.347,538.129,0.0
52603.0,STARLINK-4016,PAYLOAD,2022-11-11 20:46:08,15.0885666,0.0002357,53.2189,328.1942,30.4432,329.6697,0.00080979,0.00012629,0.0,0 STARLINK-4016,1 52603U 22052F   22315.86537143  .00012629  00000-0  80979-3 0  9993,2 52603  53.2189 328.1942 0002357  30.4432 329.6697 15.08856660 28410,6917.829000000002,95.437,541.325,538.064,0.0
52603.0,STARLINK-4016,PAYLOAD,2022-11-12 07:53:49,15.08852433,0.000242,53.2187,326.1118,30.1203,329.9928,0.00019221,2.773e-05,0.0,0 STARLINK-4016,1 52603U 22052F   22316.32904805  .00002773  00000-0  19221-3 0  9999,2 52603  53.2187 326.1118 0002420  30.1203 329.9928 15.08852433 28059,6917.842,95.437,541.382,538.033,0.0
52603.0,STARLINK-4016,PAYLOAD,2022-11-12 17:26:08,15.08846628,0.0002418,53.2185,324.328,31.0161,329.0973,7.687199999999999e-05,9.35e-06,0.0,0 STARLINK-4016,1 52603U 22052F   22316.72648791  .00000935  00000-0  76872-4 0  9996,2 52603  53.2185 324.3280 0002418  31.0161 329.0973 15.08846628 28541,6917.86,95.437,541.398,538.052,0.0
52603.0,STARLINK-4016,PAYLOAD,2022-11-13 02:58:27,15.08846166,0.0002592,53.2198,322.5413,28.4075,331.7058,5.139800000000001e-05,5.3e-06,0.0,0 STARLINK-4016,1 52603U 22052F   22317.12392531  .00000530  00000-0  51398-4 0  9996,2 52603  53.2198 322.5413 0002592  28.4075 331.7058 15.08846166 28170,6917.861999999999,95.437,541.52,537.933,0.0
52603.0,STARLINK-4016,PAYLOAD,2022-11-13 06:09:13,15.08843801,0.0002593,53.2196,321.9466,29.1714,330.9423,3.3122e-06,-2.36e-06,0.0,0 STARLINK-4016,1 52603U 22052F   22317.25640581 -.00000236  00000-0  33122-5 0  9991,2 52603  53.2196 321.9466 0002593  29.1714 330.9423 15.08843801 28628,6917.869000000002,95.437,541.528,537.94,0.0
52603.0,STARLINK-4016,PAYLOAD,2022-11-14 09:10:47,15.08834581,0.0002286,53.2189,316.8936,34.3468,325.7672,-4.3545e-05,-9.81e-06,0.0,0 STARLINK-4016,1 52603U 22052F   22318.38249794 -.00000981  00000-0 -43545-4 0  9994,2 52603  53.2189 316.8936 0002286  34.3468 325.7672 15.08834581 28362,6917.897,95.438,541.3430000000002,538.181,0.0
52603.0,STARLINK-4016,PAYLOAD,2022-11-14 17:07:43,15.08834412,0.0002302,53.2198,315.4084,34.4916,325.6225,7.861100000000001e-05,9.63e-06,0.0,0 STARLINK-4016,1 52603U 22052F   22318.71369669  .00000963  00000-0  78611-4 0  9995,2 52603  53.2198 315.4084 0002302  34.4916 325.6225 15.08834412 28848,6917.897,95.438,541.355,538.17,0.0
52603.0,STARLINK-4016,PAYLOAD,2022-11-15 01:04:38,15.08846047,0.0002431,53.2197,313.9214,36.1628,323.9528,3.4597e-05,2.62e-06,0.0,0 STARLINK-4016,1 52603U 22052F   22319.04489012  .00000262  00000-0  34597-4 0  9994,2 52603  53.2197 313.9214 0002431  36.1628 323.9528 15.08846047 28469,6917.861999999999,95.437,541.409,538.045,0.0
52603.0,STARLINK-4016,PAYLOAD,2022-11-15 09:01:34,15.08844667,0.0002483,53.2196,312.4343,37.4499,322.6666,0.00012907,1.767e-05,0.0,0 STARLINK-4016,1 52603U 22052F   22319.37608856  .00001767  00000-0  12907-3 0  9990,2 52603  53.2196 312.4343 0002483  37.4499 322.6666 15.08844667 28940,6917.866,95.437,541.4490000000002,538.013,0.0
52603.0,STARLINK-4016,PAYLOAD,2022-11-15 18:33:53,15.08838138,0.0002494,53.2189,310.6499,36.7487,323.3676,7.3984e-05,8.89e-06,0.0,0 STARLINK-4016,1 52603U 22052F   22319.77353439  .00000889  00000-0  73984-4 0  9995,2 52603  53.2189 310.6499 0002494  36.7487 323.3676 15.08838138 28579,6917.886,95.438,541.476,538.026,0.0
52603.0,STARLINK-4016,PAYLOAD,2022-11-15 20:09:16,15.08837492,0.0002477,53.2189,310.3525,37.0987,323.0176,6.2739e-05,7.1e-06,0.0,0 STARLINK-4016,1 52603U 22052F   22319.83977452  .00000710  00000-0  62739-4 0  9998,2 52603  53.2189 310.3525 0002477  37.0987 323.0176 15.08837492 29010,6917.888000000001,95.438,541.467,538.039,0.0
52603.0,STARLINK-4016,PAYLOAD,2022-11-16 08:52:21,15.08849682,0.0002434,53.2187,307.9734,39.4672,320.6497,0.00023404,3.439e-05,0.0,0 STARLINK-4016,1 52603U 22052F   22320.36968859  .00003439  00000-0  23404-3 0  9995,2 52603  53.2187 307.9734 0002434  39.4672 320.6497 15.08849682 28665,6917.851,95.437,541.4,538.0319999999998,0.0
52603.0,STARLINK-4016,PAYLOAD,2022-11-16 16:49:16,15.08850832,0.0002431,53.2186,306.4863,41.2578,318.8598,0.00031792,4.777e-05,0.0,0 STARLINK-4016,1 52603U 22052F   22320.70088718  .00004777  00000-0  31792-3 0  9995,2 52603  53.2186 306.4863 0002431  41.2578 318.8598 15.08850832 29148,6917.847,95.437,541.394,538.031,0.0
